{"type": "FeatureCollection", "features": [ {"type": "Feature", "properties": {"norad_id": 51444, "name": "CSG-2", "group": "resource", "lat": -76.9202259330205, "lon": -46.143086623390566, "alt_km": 630.8747864491752, "timestamp": "2025-12-15T04:01:20.100620+00:00", "meta": {"OBJECT_NAME": "CSG-2", "OBJECT_ID": "2022-008A", "EPOCH": "2025-12-14T07:24:43.253280", "MEAN_MOTION": 14.82165074, "ECCENTRICITY": 0.00014891, "INCLINATION": 97.8808, "RA_OF_ASC_NODE": 169.6081, "ARG_OF_PERICENTER": 81.2827, "MEAN_ANOMALY": 278.8555, "EPHEMERIS_TYPE": 0, "CLASSIFICATION_TYPE": "U", "NORAD_CAT_ID": 51444, "ELEMENT_SET_NO": 999, "REV_AT_EPOCH": 20920, "BSTAR": 5.0376984e-05, "MEAN_MOTION_DOT": 3.49e-06, "MEAN_MOTION_DDOT": 0}, "tle": {"line1": "1 51444U 22008A   25348.30883395  .00000349  00000+0  50377-4 0  9992", "line2": "2 51444  97.8808 169.6081 0001489  81.2827 278.8555 14.82165074209202"}}, "geometry": {"type": "Point", "coordinates": [-46.143086623390566, -76.9202259330205]}}, {"type": "Feature", "properties": {"norad_id": 52912, "name": "GAOFEN-12 03", "group": "resource", "lat": 25.829867595040238, "lon": 60.288535632078336, "alt_km": 629.8632997592895, "timestamp": "2025-12-15T04:01:20.100630+00:00", "meta": {"OBJECT_NAME": "GAOFEN-12 03", "OBJECT_ID": "2022-069A", "EPOCH": "2025-12-14T07:51:11.668896", "MEAN_MOTION": 14.79616457, "ECCENTRICITY": 0.00021619, "INCLINATION": 97.8481, "RA_OF_ASC_NODE": 235.6395, "ARG_OF_PERICENTER": 60.0157, "MEAN_ANOMALY": 300.1269, "EPHEMERIS_TYPE": 0, "CLASSIFICATION_TYPE": "U", "NORAD_CAT_ID": 52912, "ELEMENT_SET_NO": 999, "REV_AT_EPOCH": 18727, "BSTAR": 0.00027993015, "MEAN_MOTION_DOT": 2.048e-05, "MEAN_MOTION_DDOT": 0}, "tle": {"line1": "1 52912U 22069A   25348.32721839  .00002048  00000+0  27993-3 0  9991", "line2": "2 52912  97.8481 235.6395 0002161  60.0157 300.1269 14.79616457187276"}}, "geometry": {"type": "Point", "coordinates": [60.288535632078336, 25.829867595040238]}}, {"type": "Feature", "properties": {"norad_id": 54754, "name": "SWOT", "group": "resource", "lat": 22.3538696068706, "lon": 98.52666110093126, "alt_km": 892.5321308837183, "timestamp": "2025-12-15T04:01:20.100641+00:00", "meta": {"OBJECT_NAME": "SWOT", "OBJECT_ID": "2022-173A", "EPOCH": "2025-12-14T06:41:46.190976", "MEAN_MOTION": 14.00167213, "ECCENTRICITY": 3.356e-05, "INCLINATION": 77.6107, "RA_OF_ASC_NODE": 284.9118, "ARG_OF_PERICENTER": 106.5532, "MEAN_ANOMALY": 253.5657, "EPHEMERIS_TYPE": 0, "CLASSIFICATION_TYPE": "U", "NORAD_CAT_ID": 54754, "ELEMENT_SET_NO": 999, "REV_AT_EPOCH": 15327, "BSTAR": 7.2722206e-05, "MEAN_MOTION_DOT": 1.05e-06, "MEAN_MOTION_DDOT": 0}, "tle": {"line1": "1 54754U 22173A   25348.27900684  .00000105  00000+0  72722-4 0  9997", "line2": "2 54754  77.6107 284.9118 0000335 106.5532 253.5657 14.00167213153277"}}, "geometry": {"type": "Point", "coordinates": [98.52666110093126, 22.3538696068706]}}, {"type": "Feature", "properties": {"norad_id": 57654, "name": "GAOFEN-12 04", "group": "resource", "lat": -35.5390305167547, "lon": -89.4110901787553, "alt_km": 636.8424849714283, "timestamp": "2025-12-15T04:01:20.100651+00:00", "meta": {"OBJECT_NAME": "GAOFEN-12 04", "OBJECT_ID": "2023-123A", "EPOCH": "2025-12-14T08:42:33.049728", "MEAN_MOTION": 14.79707295, "ECCENTRICITY": 0.00013293, "INCLINATION": 97.9119, "RA_OF_ASC_NODE": 264.0955, "ARG_OF_PERICENTER": 75.0969, "MEAN_ANOMALY": 285.039, "EPHEMERIS_TYPE": 0, "CLASSIFICATION_TYPE": "U", "NORAD_CAT_ID": 57654, "ELEMENT_SET_NO": 999, "REV_AT_EPOCH": 12529, "BSTAR": 0.00024284808, "MEAN_MOTION_DOT": 1.773e-05, "MEAN_MOTION_DDOT": 0}, "tle": {"line1": "1 57654U 23123A   25348.36288252  .00001773  00000+0  24285-3 0  9997", "line2": "2 57654  97.9119 264.0955 0001329  75.0969 285.0390 14.79707295125294"}}, "geometry": {"type": "Point", "coordinates": [-89.4110901787553, -35.5390305167547]}}, {"type": "Feature", "properties": {"norad_id": 59065, "name": "PARS 1", "group": "resource", "lat": 3.9742083810304027, "lon": 140.6741018477853, "alt_km": 448.7117061957488, "timestamp": "2025-12-15T04:01:20.100666+00:00", "meta": {"OBJECT_NAME": "PARS 1", "OBJECT_ID": "2024-039Q", "EPOCH": "2025-12-14T08:33:42.069024", "MEAN_MOTION": 15.41021026, "ECCENTRICITY": 0.00124972, "INCLINATION": 97.4632, "RA_OF_ASC_NODE": 319.3241, "ARG_OF_PERICENTER": 67.4418, "MEAN_ANOMALY": 292.8149, "EPHEMERIS_TYPE": 0, "CLASSIFICATION_TYPE": "U", "NORAD_CAT_ID": 59065, "ELEMENT_SET_NO": 999, "REV_AT_EPOCH": 10013, "BSTAR": 0.00031216479, "MEAN_MOTION_DOT": 0.00012834, "MEAN_MOTION_DDOT": 0}, "tle": {"line1": "1 59065U 24039Q   25348.35673691  .00012834  00000+0  31216-3 0  9998", "line2": "2 59065  97.4632 319.3241 0012497  67.4418 292.8149 15.41021026100136"}}, "geometry": {"type": "Point", "coordinates": [140.6741018477853, 3.9742083810304027]}}, {"type": "Feature", "properties": {"norad_id": 59371, "name": "RESURS-P 4", "group": "resource", "lat": -59.2768201038803, "lon": 103.0716315139651, "alt_km": 477.64692941518206, "timestamp": "2025-12-15T04:01:20.100676+00:00", "meta": {"OBJECT_NAME": "RESURS-P 4", "OBJECT_ID": "2024-061A", "EPOCH": "2025-12-14T08:10:04.871424", "MEAN_MOTION": 15.32102392, "ECCENTRICITY": 0.0001413, "INCLINATION": 97.254, "RA_OF_ASC_NODE": 294.6375, "ARG_OF_PERICENTER": 54.3863, "MEAN_ANOMALY": 305.751, "EPHEMERIS_TYPE": 0, "CLASSIFICATION_TYPE": "U", "NORAD_CAT_ID": 59371, "ELEMENT_SET_NO": 999, "REV_AT_EPOCH": 9545, "BSTAR": 0.00015938808, "MEAN_MOTION_DOT": 4.864e-05, "MEAN_MOTION_DDOT": 0}, "tle": {"line1": "1 59371U 24061A   25348.34033416  .00004864  00000+0  15939-3 0  9995", "line2": "2 59371  97.2540 294.6375 0001413  54.3863 305.7510 15.32102392 95450"}}, "geometry": {"type": "Point", "coordinates": [103.0716315139651, -59.2768201038803]}}, {"type": "Feature", "properties": {"norad_id": 59625, "name": "LEGION 1", "group": "resource", "lat": -30.87113624400731, "lon": 68.31543224611094, "alt_km": 519.9750291429364, "timestamp": "2025-12-15T04:01:20.100687+00:00", "meta": {"OBJECT_NAME": "LEGION 1", "OBJECT_ID": "2024-081A", "EPOCH": "2025-12-14T07:34:21.538848", "MEAN_MOTION": 15.16501018, "ECCENTRICITY": 0.00038838, "INCLINATION": 97.5213, "RA_OF_ASC_NODE": 62.9405, "ARG_OF_PERICENTER": 311.0358, "MEAN_ANOMALY": 49.0539, "EPHEMERIS_TYPE": 0, "CLASSIFICATION_TYPE": "U", "NORAD_CAT_ID": 59625, "ELEMENT_SET_NO": 999, "REV_AT_EPOCH": 8951, "BSTAR": 0.00029699211, "MEAN_MOTION_DOT": 5.72e-05, "MEAN_MOTION_DDOT": 0}, "tle": {"line1": "1 59625U 24081A   25348.31552707  .00005720  00000+0  29699-3 0  9995", "line2": "2 59625  97.5213  62.9405 0003883 311.0358  49.0539 15.16501018 89516"}}, "geometry": {"type": "Point", "coordinates": [68.31543224611094, -30.87113624400731]}}, {"type": "Feature", "properties": {"norad_id": 59626, "name": "LEGION 2", "group": "resource", "lat": 30.853417023137233, "lon": -111.60011503078587, "alt_km": 517.5307772204669, "timestamp": "2025-12-15T04:01:20.100697+00:00", "meta": {"OBJECT_NAME": "LEGION 2", "OBJECT_ID": "2024-081B", "EPOCH": "2025-12-14T08:21:54.277632", "MEAN_MOTION": 15.16514772, "ECCENTRICITY": 0.00056535, "INCLINATION": 97.5218, "RA_OF_ASC_NODE": 63.0605, "ARG_OF_PERICENTER": 286.8729, "MEAN_ANOMALY": 73.1884, "EPHEMERIS_TYPE": 0, "CLASSIFICATION_TYPE": "U", "NORAD_CAT_ID": 59626, "ELEMENT_SET_NO": 999, "REV_AT_EPOCH": 8952, "BSTAR": 0.00030597139, "MEAN_MOTION_DOT": 5.898e-05, "MEAN_MOTION_DDOT": 0}, "tle": {"line1": "1 59626U 24081B   25348.34854488  .00005898  00000+0  30597-3 0  9995", "line2": "2 59626  97.5218  63.0605 0005653 286.8729  73.1884 15.16514772 89527"}}, "geometry": {"type": "Point", "coordinates": [-111.60011503078587, 30.853417023137233]}}, {"type": "Feature", "properties": {"norad_id": 60182, "name": "ALOS-4 (DAICHI-4)", "group": "resource", "lat": -22.986173439401167, "lon": -99.40703365928091, "alt_km": 636.7895072253814, "timestamp": "2025-12-15T04:01:20.100708+00:00", "meta": {"OBJECT_NAME": "ALOS-4 (DAICHI-4)", "OBJECT_ID": "2024-123A", "EPOCH": "2025-12-10T20:50:51.532800", "MEAN_MOTION": 14.79478132, "ECCENTRICITY": 0.0001419, "INCLINATION": 97.9225, "RA_OF_ASC_NODE": 79.7424, "ARG_OF_PERICENTER": 101.2045, "MEAN_ANOMALY": 258.9326, "EPHEMERIS_TYPE": 0, "CLASSIFICATION_TYPE": "U", "NORAD_CAT_ID": 60182, "ELEMENT_SET_NO": 999, "REV_AT_EPOCH": 7803, "BSTAR": 0.00039567, "MEAN_MOTION_DOT": 2.905e-05, "MEAN_MOTION_DDOT": 0}, "tle": {"line1": "1 60182U 24123A   25344.86865200  .00002905  00000+0  39567-3 0  9990", "line2": "2 60182  97.9225  79.7424 0001419 101.2045 258.9326 14.79478132 78033"}}, "geometry": {"type": "Point", "coordinates": [-99.40703365928091, -22.986173439401167]}}, {"type": "Feature", "properties": {"norad_id": 60452, "name": "LEGION 3", "group": "resource", "lat": -22.672328320837494, "lon": 141.82351533128028, "alt_km": 510.6109129820916, "timestamp": "2025-12-15T04:01:20.100719+00:00", "meta": {"OBJECT_NAME": "LEGION 3", "OBJECT_ID": "2024-146A", "EPOCH": "2025-12-14T06:31:28.888032", "MEAN_MOTION": 15.15783472, "ECCENTRICITY": 0.00150312, "INCLINATION": 45.0016, "RA_OF_ASC_NODE": 301.919, "ARG_OF_PERICENTER": 206.9208, "MEAN_ANOMALY": 153.0892, "EPHEMERIS_TYPE": 0, "CLASSIFICATION_TYPE": "U", "NORAD_CAT_ID": 60452, "ELEMENT_SET_NO": 999, "REV_AT_EPOCH": 7396, "BSTAR": 0.00034438953, "MEAN_MOTION_DOT": 6.443e-05, "MEAN_MOTION_DDOT": 0}, "tle": {"line1": "1 60452U 24146A   25348.27186213  .00006443  00000+0  34439-3 0  9998", "line2": "2 60452  45.0016 301.9190 0015031 206.9208 153.0892 15.15783472 73961"}}, "geometry": {"type": "Point", "coordinates": [141.82351533128028, -22.672328320837494]}}]}